[{"OBJECT_NAME":"JY1SAT (JO-97)","OBJECT_ID":"2018-099AX","EPOCH":"2026-03-09T16:28:19.890048","MEAN_MOTION":15.30302629,"ECCENTRICITY":0.00047232,"INCLINATION":97.4249,"RA_OF_ASC_NODE":131.3625,"ARG_OF_PERICENTER":256.6795,"MEAN_ANOMALY":103.3919,"EPHEMERIS_TYPE":0,"CLASSIFICATION_TYPE":"U","NORAD_CAT_ID":43803,"ELEMENT_SET_NO":999,"REV_AT_EPOCH":39839,"BSTAR":0.00060804308,"MEAN_MOTION_DOT":0.00017774,"MEAN_MOTION_DDOT":0},{"OBJECT_NAME":"STARLINK-33726","OBJECT_ID":"2025-069E","EPOCH":"2026-03-09T11:54:23.276736","MEAN_MOTION":15.30183515,"ECCENTRICITY":9.051e-5,"INCLINATION":53.1576,"RA_OF_ASC_NODE":143.4816,"ARG_OF_PERICENTER":96.3514,"MEAN_ANOMALY":263.759,"EPHEMERIS_TYPE":0,"CLASSIFICATION_TYPE":"U","NORAD_CAT_ID":63437,"ELEMENT_SET_NO":999,"REV_AT_EPOCH":5332,"BSTAR":0.0011991476,"MEAN_MOTION_DOT":0.00035307,"MEAN_MOTION_DDOT":0}]
