JY1SAT (JO-97)          
1 43803U 18099AX  26068.68634132  .00017774  00000+0  60804-3 0  9996
2 43803  97.4249 131.3625 0004723 256.6795 103.3919 15.30302628398390
STARLINK-33726          
1 63437U 25069E   26068.49610274  .00035307  00000+0  11991-2 0  9990
2 63437  53.1576 143.4816 0000905  96.3514 263.7590 15.30183515 53328
